CCSDS_OMM_VERS = 2.0
CREATION_DATE  = 
ORIGINATOR     = 

OBJECT_NAME    = UNKNOWN
OBJECT_ID      = 
CENTER_NAME    = EARTH
REF_FRAME      = TEME
TIME_SYSTEM    = UTC
MEAN_ELEMENT_THEORY = SGP/SGP4

EPOCH          = 2026-01-26T14:23:35.187648
MEAN_MOTION    = 14.83370458
ECCENTRICITY   = .0010572
INCLINATION    = 98.3915
RA_OF_ASC_NODE = 258.5231
ARG_OF_PERICENTER = 2.7863
MEAN_ANOMALY   = 357.3406

EPHEMERIS_TYPE = 0
CLASSIFICATION_TYPE = U
NORAD_CAT_ID   = 82381
ELEMENT_SET_NO = 999
REV_AT_EPOCH   = 51745
BSTAR          = .43996E-2
MEAN_MOTION_DOT = .3623E-3
MEAN_MOTION_DDOT = 0

CCSDS_OMM_VERS = 2.0
CREATION_DATE  = 
ORIGINATOR     = 

OBJECT_NAME    = UNKNOWN
OBJECT_ID      = 
CENTER_NAME    = EARTH
REF_FRAME      = TEME
TIME_SYSTEM    = UTC
MEAN_ELEMENT_THEORY = SGP/SGP4

EPOCH          = 2026-01-25T18:06:24.629472
MEAN_MOTION    = 15.04228489
ECCENTRICITY   = .0008034
INCLINATION    = 86.6640
RA_OF_ASC_NODE = 136.5918
ARG_OF_PERICENTER = 19.4323
MEAN_ANOMALY   = 340.7216

EPHEMERIS_TYPE = 0
CLASSIFICATION_TYPE = U
NORAD_CAT_ID   = 82402
ELEMENT_SET_NO = 999
REV_AT_EPOCH   = 46108
BSTAR          = .74815E-3
MEAN_MOTION_DOT = .10436E-3
MEAN_MOTION_DDOT = 0

CCSDS_OMM_VERS = 2.0
CREATION_DATE  = 
ORIGINATOR     = 

OBJECT_NAME    = UNKNOWN
OBJECT_ID      = 
CENTER_NAME    = EARTH
REF_FRAME      = TEME
TIME_SYSTEM    = UTC
MEAN_ELEMENT_THEORY = SGP/SGP4

EPOCH          = 2026-01-16T10:23:10.575456
MEAN_MOTION    = 14.58714109
ECCENTRICITY   = .0054449
INCLINATION    = 74.0067
RA_OF_ASC_NODE = 274.4084
ARG_OF_PERICENTER = 69.8652
MEAN_ANOMALY   = 290.8360

EPHEMERIS_TYPE = 0
CLASSIFICATION_TYPE = U
NORAD_CAT_ID   = 82432
ELEMENT_SET_NO = 999
REV_AT_EPOCH   = 48796
BSTAR          = .26452E-3
MEAN_MOTION_DOT = .1229E-4
MEAN_MOTION_DDOT = 0

CCSDS_OMM_VERS = 2.0
CREATION_DATE  = 
ORIGINATOR     = 

OBJECT_NAME    = UNKNOWN
OBJECT_ID      = 
CENTER_NAME    = EARTH
REF_FRAME      = TEME
TIME_SYSTEM    = UTC
MEAN_ELEMENT_THEORY = SGP/SGP4

EPOCH          = 2026-01-25T20:44:57.171840
MEAN_MOTION    = 15.04400979
ECCENTRICITY   = .0010756
INCLINATION    = 85.8741
RA_OF_ASC_NODE = 175.7469
ARG_OF_PERICENTER = 99.6419
MEAN_ANOMALY   = 260.6031

EPHEMERIS_TYPE = 0
CLASSIFICATION_TYPE = U
NORAD_CAT_ID   = 82448
ELEMENT_SET_NO = 999
REV_AT_EPOCH   = 44367
BSTAR          = .79942E-3
MEAN_MOTION_DOT = .11209E-3
MEAN_MOTION_DDOT = 0

CCSDS_OMM_VERS = 2.0
CREATION_DATE  = 
ORIGINATOR     = 

OBJECT_NAME    = UNKNOWN
OBJECT_ID      = 
CENTER_NAME    = EARTH
REF_FRAME      = TEME
TIME_SYSTEM    = UTC
MEAN_ELEMENT_THEORY = SGP/SGP4

EPOCH          = 2026-01-24T14:33:07.176384
MEAN_MOTION    = 12.39705455
ECCENTRICITY   = .0093535
INCLINATION    = 102.1844
RA_OF_ASC_NODE = 345.9539
ARG_OF_PERICENTER = 127.8307
MEAN_ANOMALY   = 233.1266

EPHEMERIS_TYPE = 0
CLASSIFICATION_TYPE = U
NORAD_CAT_ID   = 82453
ELEMENT_SET_NO = 999
REV_AT_EPOCH   = 55137
BSTAR          = .56153E-3
MEAN_MOTION_DOT = .31E-6
MEAN_MOTION_DDOT = 0

CCSDS_OMM_VERS = 2.0
CREATION_DATE  = 
ORIGINATOR     = 

OBJECT_NAME    = UNKNOWN
OBJECT_ID      = 
CENTER_NAME    = EARTH
REF_FRAME      = TEME
TIME_SYSTEM    = UTC
MEAN_ELEMENT_THEORY = SGP/SGP4

EPOCH          = 2026-01-19T10:37:53.933376
MEAN_MOTION    = 14.23189959
ECCENTRICITY   = .0056475
INCLINATION    = 66.5124
RA_OF_ASC_NODE = 85.2499
ARG_OF_PERICENTER = 340.6430
MEAN_ANOMALY   = 19.2517

EPHEMERIS_TYPE = 0
CLASSIFICATION_TYPE = U
NORAD_CAT_ID   = 82458
ELEMENT_SET_NO = 999
REV_AT_EPOCH   = 61540
BSTAR          = .13834E-2
MEAN_MOTION_DOT = .3099E-4
MEAN_MOTION_DDOT = 0

CCSDS_OMM_VERS = 2.0
CREATION_DATE  = 
ORIGINATOR     = 

OBJECT_NAME    = UNKNOWN
OBJECT_ID      = 
CENTER_NAME    = EARTH
REF_FRAME      = TEME
TIME_SYSTEM    = UTC
MEAN_ELEMENT_THEORY = SGP/SGP4

EPOCH          = 2026-01-23T12:15:18.644544
MEAN_MOTION    = 13.55815790
ECCENTRICITY   = .0045493
INCLINATION    = 99.3540
RA_OF_ASC_NODE = 47.9830
ARG_OF_PERICENTER = 89.3977
MEAN_ANOMALY   = 271.2374

EPHEMERIS_TYPE = 0
CLASSIFICATION_TYPE = U
NORAD_CAT_ID   = 82484
ELEMENT_SET_NO = 999
REV_AT_EPOCH   = 59629
BSTAR          = .28021E-3
MEAN_MOTION_DOT = .156E-5
MEAN_MOTION_DDOT = 0

CCSDS_OMM_VERS = 2.0
CREATION_DATE  = 
ORIGINATOR     = 

OBJECT_NAME    = UNKNOWN
OBJECT_ID      = 
CENTER_NAME    = EARTH
REF_FRAME      = TEME
TIME_SYSTEM    = UTC
MEAN_ELEMENT_THEORY = SGP/SGP4

EPOCH          = 2026-01-25T17:38:33.909216
MEAN_MOTION    = 14.88040723
ECCENTRICITY   = .0002872
INCLINATION    = 74.0071
RA_OF_ASC_NODE = 294.0663
ARG_OF_PERICENTER = 73.0717
MEAN_ANOMALY   = 287.0778

EPHEMERIS_TYPE = 0
CLASSIFICATION_TYPE = U
NORAD_CAT_ID   = 82494
ELEMENT_SET_NO = 999
REV_AT_EPOCH   = 9150
BSTAR          = .33035E-2
MEAN_MOTION_DOT = .3046E-3
MEAN_MOTION_DDOT = 0

CCSDS_OMM_VERS = 2.0
CREATION_DATE  = 
ORIGINATOR     = 

OBJECT_NAME    = UNKNOWN
OBJECT_ID      = 
CENTER_NAME    = EARTH
REF_FRAME      = TEME
TIME_SYSTEM    = UTC
MEAN_ELEMENT_THEORY = SGP/SGP4

EPOCH          = 2026-01-17T00:25:34.379328
MEAN_MOTION    = 14.18787304
ECCENTRICITY   = .0115367
INCLINATION    = 70.9668
RA_OF_ASC_NODE = 289.1757
ARG_OF_PERICENTER = 61.1040
MEAN_ANOMALY   = 300.1600

EPHEMERIS_TYPE = 0
CLASSIFICATION_TYPE = U
NORAD_CAT_ID   = 82500
ELEMENT_SET_NO = 999
REV_AT_EPOCH   = 62395
BSTAR          = .16322E-2
MEAN_MOTION_DOT = .358E-4
MEAN_MOTION_DDOT = 0

CCSDS_OMM_VERS = 2.0
CREATION_DATE  = 
ORIGINATOR     = 

OBJECT_NAME    = UNKNOWN
OBJECT_ID      = 
CENTER_NAME    = EARTH
REF_FRAME      = TEME
TIME_SYSTEM    = UTC
MEAN_ELEMENT_THEORY = SGP/SGP4

EPOCH          = 2026-01-25T15:28:46.761024
MEAN_MOTION    = 14.35586640
ECCENTRICITY   = .013557
INCLINATION    = 73.2826
RA_OF_ASC_NODE = 97.5230
ARG_OF_PERICENTER = 225.0852
MEAN_ANOMALY   = 289.2237

EPHEMERIS_TYPE = 0
CLASSIFICATION_TYPE = U
NORAD_CAT_ID   = 82524
ELEMENT_SET_NO = 999
REV_AT_EPOCH   = 58333
BSTAR          = .46701E-2
MEAN_MOTION_DOT = .14939E-3
MEAN_MOTION_DDOT = 0

CCSDS_OMM_VERS = 2.0
CREATION_DATE  = 
ORIGINATOR     = 

OBJECT_NAME    = UNKNOWN
OBJECT_ID      = 
CENTER_NAME    = EARTH
REF_FRAME      = TEME
TIME_SYSTEM    = UTC
MEAN_ELEMENT_THEORY = SGP/SGP4

EPOCH          = 2026-01-23T00:36:19.107360
MEAN_MOTION    = 13.41152401
ECCENTRICITY   = .0239419
INCLINATION    = 99.7855
RA_OF_ASC_NODE = 110.1163
ARG_OF_PERICENTER = 140.1937
MEAN_ANOMALY   = 33.5886

EPHEMERIS_TYPE = 0
CLASSIFICATION_TYPE = U
NORAD_CAT_ID   = 82529
ELEMENT_SET_NO = 999
REV_AT_EPOCH   = 59527
BSTAR          = .93043E-3
MEAN_MOTION_DOT = .569E-5
MEAN_MOTION_DDOT = 0

CCSDS_OMM_VERS = 2.0
CREATION_DATE  = 
ORIGINATOR     = 

OBJECT_NAME    = UNKNOWN
OBJECT_ID      = 
CENTER_NAME    = EARTH
REF_FRAME      = TEME
TIME_SYSTEM    = UTC
MEAN_ELEMENT_THEORY = SGP/SGP4

EPOCH          = 2026-01-25T02:05:18.079584
MEAN_MOTION    = 13.90785997
ECCENTRICITY   = .0009295
INCLINATION    = 99.9929
RA_OF_ASC_NODE = 335.8577
ARG_OF_PERICENTER = 191.0582
MEAN_ANOMALY   = 231.2938

EPHEMERIS_TYPE = 0
CLASSIFICATION_TYPE = U
NORAD_CAT_ID   = 82560
ELEMENT_SET_NO = 999
REV_AT_EPOCH   = 61789
BSTAR          = .17457E-2
MEAN_MOTION_DOT = .2133E-4
MEAN_MOTION_DDOT = 0

