UNKNOWN                 
1 82381U          26026.59971282  .00036230  00000+0  43996-2 0  9997
2 82381  98.3915 258.5231 0010572   2.7863 357.3406 14.83370458517459
UNKNOWN                 
1 82402U          26025.75445173  .00010436  00000+0  74815-3 0  9998
2 82402  86.6640 136.5918 0008034  19.4323 340.7216 15.04228489461083
UNKNOWN                 
1 82432U          26016.43276129  .00001229  00000+0  26452-3 0  9993
2 82432  74.0067 274.4084 0054449  69.8652 290.8360 14.58714109487968
UNKNOWN                 
1 82448U          26025.86455060  .00011209  00000+0  79942-3 0  9991
2 82448  85.8741 175.7469 0010756  99.6419 260.6031 15.04400979443678
UNKNOWN                 
1 82453U          26024.60633306  .00000031  00000+0  56153-3 0  9999
2 82453 102.1844 345.9539 0093535 127.8307 233.1266 12.39705455551370
UNKNOWN                 
1 82458U          26019.44298534  .00003099  00000+0  13834-2 0  9995
2 82458  66.5124  85.2499 0056475 340.6430  19.2517 14.23189959615409
UNKNOWN                 
1 82484U          26023.51063246  .00000156  00000+0  28021-3 0  9993
2 82484  99.3540  47.9830 0045493  89.3977 271.2374 13.55815790596298
UNKNOWN                 
1 82494U          26025.73511469  .00030460  00000+0  33035-2 0  9996
2 82494  74.0071 294.0663 0002872  73.0717 287.0778 14.88040723 91503
UNKNOWN                 
1 82500U          26017.01775902  .00003580  00000+0  16322-2 0  9993
2 82500  70.9668 289.1757 0115367  61.1040 300.1600 14.18787304623955
UNKNOWN                 
1 82524U          26025.64498566  .00014939  00000+0  46701-2 0  9999
2 82524  73.2826  97.5230 0135570 225.0852 289.2237 14.35586640583339
UNKNOWN                 
1 82529U          26023.02522115  .00000569  00000+0  93043-3 0  9998
2 82529  99.7855 110.1163 0239419 140.1937  33.5886 13.41152401595270
UNKNOWN                 
1 82560U          26025.08701481  .00002133  00000+0  17457-2 0  9999
2 82560  99.9929 335.8577 0009295 191.0582 231.2938 13.90785997617896
